{"spkid": "54322716", "covariance": {"epoch": "2460372.5", "labels": ["e", "q", "tp", "node", "peri", "i"], "data": [["1.690225620299006E-13", "-2.686242226205761E-13", "9.781606229850143E-11", "6.517165397232997E-13", "1.193641923444317E-10", "3.283050259882164E-12"], ["-2.686242226205761E-13", "4.269278639638278E-13", "-1.555523272452339E-10", "-1.037403961111438E-12", "-1.898134617234987E-10", "-5.317158955610889E-12"], ["9.781606229850143E-11", "-1.555523272452339E-10", "5.774150394104992E-8", "4.069049632352722E-10", "7.037673635631538E-8", "2.953390410700631E-9"], ["6.517165397232997E-13", "-1.037403961111438E-12", "4.069049632352722E-10", "9.112204386165581E-12", "4.874782887006549E-10", "1.063905483076994E-11"], ["1.193641923444317E-10", "-1.898134617234987E-10", "7.037673635631538E-8", "4.874782887006549E-10", "8.57914191408737E-8", "3.562491227599767E-9"], ["3.283050259882164E-12", "-5.317158955610889E-12", "2.953390410700631E-9", "1.063905483076994E-11", "3.562491227599767E-9", "2.029486075088071E-9"]], "elements": [{"label": "e", "units": null, "title": "eccentricity", "value": ".3754182679812254", "name": "e", "sigma": 4.11123536214969e-07}, {"value": ".9906227342480349", "title": "perihelion distance", "units": "au", "sigma": 6.5339717168337e-07, "name": "q", "label": "q"}, {"label": "tp", "value": "2460637.908355907003", "title": "time of perihelion passage", "units": "TDB", "sigma": 0.000240294619043061, "name": "tp"}, {"label": "node", "name": "om", "sigma": 3.01864280532917e-06, "units": "deg", "value": "217.9439477504844", "title": "longitude of the ascending node"}, {"label": "peri", "sigma": 0.000292901722666279, "name": "w", "title": "argument of perihelion", "value": "207.4136397887966", "units": "deg"}, {"units": "deg", "title": "inclination", "value": "18.36810506380866", "name": "i", "sigma": 4.50498177031614e-05, "label": "i"}]}, "elements": [{"value": ".3749336209225123", "title": "eccentricity", "units": null, "name": "e", "sigma": "4.1274E-7", "label": "e"}, {"units": "au", "value": "1.584796727292538", "title": "semi-major axis", "sigma": "4.6333E-9", "name": "a", "label": "a"}, {"title": "perihelion distance", "value": ".9906031519025994", "units": "au", "sigma": "6.5638E-7", "name": "q", "label": "q"}, {"label": "i", "name": "i", "sigma": "4.5041E-5", "value": "18.363138019162", "title": "inclination; angle with respect to x-y ecliptic plane", "units": "deg"}, {"label": "node", "name": "om", "sigma": "3.0314E-6", "units": "deg", "title": "longitude of the ascending node", "value": "217.9190480121346"}, {"label": "peri", "sigma": ".0002929", "name": "w", "value": "207.5526917210418", "title": "argument of perihelion", "units": "deg"}, {"sigma": ".00011803", "name": "ma", "units": "deg", "title": "mean anomaly", "value": "277.899950145797", "label": "M"}, {"label": "tp", "value": "2461366.688013070667", "title": "time of perihelion passage", "units": "TDB", "name": "tp", "sigma": ".00023837"}, {"sigma": "3.1957E-6", "name": "per", "value": "728.7167889871539", "title": "sidereal orbital period", "units": "d", "label": "period"}, {"name": "n", "sigma": "2.1665E-9", "title": "mean motion", "value": ".4940190831891842", "units": "deg/d", "label": "n"}, {"name": "ad", "sigma": "6.3705E-9", "units": "au", "value": "2.178990302682476", "title": "aphelion distance", "label": "Q"}], "epoch": "2461200.5"}